NORAD_CAT_ID,OBJECT_NAME,OBJECT_TYPE,EPOCH,MEAN_MOTION,ECCENTRICITY,INCLINATION,RA_OF_ASC_NODE,ARG_OF_PERICENTER,MEAN_ANOMALY,BSTAR,MEAN_MOTION_DOT,MEAN_MOTION_DDOT,TLE_LINE0,TLE_LINE1,TLE_LINE2,SEMIMAJOR_AXIS,PERIOD,APOGEE,PERIGEE,DECAYED
54093.0,STARLINK-5213,PAYLOAD,2023-09-14 12:08:22,15.08833793,0.000184,53.2182,86.3768,92.3724,267.7479,2.0361e-05,3.6e-07,0.0,0 STARLINK-5213,1 54093U 22136AU  23257.50581923  .00000036  00000-0  20361-4 0  9992,2 54093  53.2182  86.3768 0001840  92.3724 267.7479 15.08833793 50039,6917.899,95.438,541.037,538.491,0.0
54093.0,STARLINK-5213,PAYLOAD,2023-09-14 18:29:55,15.08832979,0.000143,53.2173,85.1835,113.953,246.1612,-9.8283e-06,-4.44e-06,0.0,0 STARLINK-5213,1 54093U 22136AU  23257.77078053 -.00000444  00000-0 -98283-5 0  9990,2 54093  53.2173  85.1835 0001430 113.9530 246.1612 15.08832979 50542,6917.902,95.438,540.756,538.778,0.0
54093.0,STARLINK-5213,PAYLOAD,2023-09-14 20:05:18,15.08832118,0.0001166,53.2176,84.8884,87.7619,272.3507,-3.9029e-06,-3.5e-06,0.0,0 STARLINK-5213,1 54093U 22136AU  23257.83702194 -.00000350  00000-0 -39029-5 0  9996,2 54093  53.2176  84.8884 0001166  87.7619 272.3507 15.08832118 50085,6917.904,95.438,540.576,538.963,0.0
54093.0,STARLINK-5213,PAYLOAD,2023-09-15 05:37:37,15.08839607,0.0001083,53.2176,83.1052,92.9692,267.1424,1.3991e-05,-6.5e-07,0.0,0 STARLINK-5213,1 54093U 22136AU  23258.23445784 -.00000065  00000-0  13991-4 0  9991,2 54093  53.2176  83.1052 0001083  92.9692 267.1424 15.08839607 50610,6917.882,95.438,540.496,538.997,0.0
54093.0,STARLINK-5213,PAYLOAD,2023-09-15 13:34:32,15.08841279,0.0001044,53.2172,81.6174,91.7661,268.3451,4.0226e-05,3.52e-06,0.0,0 STARLINK-5213,1 54093U 22136AU  23258.56565596  .00000352  00000-0  40226-4 0  9990,2 54093  53.2172  81.6174 0001044  91.7661 268.3451 15.08841279 50198,6917.876,95.437,540.464,539.019,0.0
54093.0,STARLINK-5213,PAYLOAD,2023-09-15 21:31:27,15.08853763,0.0001121,53.2178,80.1305,87.4616,272.6505,7.5484e-05,9.14e-06,0.0,0 STARLINK-5213,1 54093U 22136AU  23258.89684738  .00000914  00000-0  75484-4 0  9994,2 54093  53.2178  80.1305 0001121  87.4616 272.6505 15.08853763 50719,6917.838,95.437,540.479,538.928,0.0
54093.0,STARLINK-5213,PAYLOAD,2023-09-16 05:28:23,15.08845684,0.0001203,53.2182,78.6445,80.976,279.1368,1.2152e-05,-9.4e-07,0.0,0 STARLINK-5213,1 54093U 22136AU  23259.22805371 -.00000094  00000-0  12152-4 0  9993,2 54093  53.2182  78.6445 0001203  80.9760 279.1368 15.08845684 50767,6917.863,95.437,540.56,538.896,0.0
54093.0,STARLINK-5213,PAYLOAD,2023-09-16 11:49:57,15.08832663,0.0001114,53.2167,77.4542,94.067,266.0449,0.00014047,1.948e-05,0.0,0 STARLINK-5213,1 54093U 22136AU  23259.49302086  .00001948  00000-0  14047-3 0  9999,2 54093  53.2167  77.4542 0001114  94.0670 266.0449 15.08832663 50333,6917.903,95.438,540.538,538.997,0.0
54093.0,STARLINK-5213,PAYLOAD,2023-09-16 18:11:29,15.08835063,0.0001135,53.2178,76.2644,102.3427,257.7692,0.0001205,1.63e-05,0.0,0 STARLINK-5213,1 54093U 22136AU  23259.75798043  .00001630  00000-0  12050-3 0  9990,2 54093  53.2178  76.2644 0001135 102.3427 257.7692 15.08835063 50841,6917.895,95.438,540.546,538.975,0.0
54093.0,STARLINK-5213,PAYLOAD,2023-09-17 18:02:15,15.08852494,0.0001139,53.2174,71.8052,86.9936,273.1187,0.00016123,2.28e-05,0.0,0 STARLINK-5213,1 54093U 22136AU  23260.75157098  .00002280  00000-0  16123-3 0  9998,2 54093  53.2174  71.8052 0001139  86.9936 273.1187 15.08852494 50991,6917.842,95.437,540.495,538.919,0.0
54093.0,STARLINK-5213,PAYLOAD,2023-09-18 11:31:31,15.0883626,0.0001124,53.2168,68.5328,85.8279,274.2842,6.5542e-05,7.55e-06,0.0,0 STARLINK-5213,1 54093U 22136AU  23261.48022176  .00000755  00000-0  65542-4 0  9992,2 54093  53.2168  68.5328 0001124  85.8279 274.2842 15.08836260 50639,6917.892,95.438,540.534,538.979,0.0
54093.0,STARLINK-5213,PAYLOAD,2023-09-18 17:53:03,15.0884032,0.0001141,53.2175,67.3442,86.5012,273.6111,8.9557e-05,1.138e-05,0.0,0 STARLINK-5213,1 54093U 22136AU  23261.74517962  .00001138  00000-0  89557-4 0  9991,2 54093  53.2175  67.3442 0001141  86.5012 273.6111 15.08840320 51144,6917.879,95.438,540.534,538.955,0.0
54093.0,STARLINK-5213,PAYLOAD,2023-09-18 19:28:26,15.08842997,0.0001135,53.2175,67.0469,85.5028,274.6094,0.00011044,1.47e-05,0.0,0 STARLINK-5213,1 54093U 22136AU  23261.81141762  .00001470  00000-0  11044-3 0  9994,2 54093  53.2175  67.0469 0001135  85.5028 274.6094 15.08842997 50680,6917.871,95.437,540.521,538.951,0.0
54093.0,STARLINK-5213,PAYLOAD,2023-09-19 17:43:49,15.08855942,0.000121,53.2172,62.8836,82.4742,277.6387,0.0002013,2.919e-05,0.0,0 STARLINK-5213,1 54093U 22136AU  23262.73877011  .00002919  00000-0  20130-3 0  9994,2 54093  53.2172  62.8836 0001210  82.4742 277.6387 15.08855942 51291,6917.832,95.437,540.534,538.86,0.0
54093.0,STARLINK-5213,PAYLOAD,2023-09-20 11:13:05,15.08832667,0.0001341,53.2176,59.613,82.7649,277.3496,-1.7433e-05,-5.65e-06,0.0,0 STARLINK-5213,1 54093U 22136AU  23263.46742440 -.00000565  00000-0 -17433-4 0  9992,2 54093  53.2176  59.6130 0001341  82.7649 277.3496 15.08832667 51400,6917.903,95.438,540.695,538.84,0.0
54093.0,STARLINK-5213,PAYLOAD,2023-09-20 14:23:51,15.08828563,0.0001242,53.2178,59.0173,102.6065,257.5066,-9.3644e-05,-1.777e-05,0.0,0 STARLINK-5213,1 54093U 22136AU  23263.59990621 -.00001777  00000-0 -93644-4 0  9996,2 54093  53.2178  59.0173 0001242 102.6065 257.5066 15.08828563 50959,6917.915,95.438,540.64,538.921,0.0
54093.0,STARLINK-5213,PAYLOAD,2023-09-20 17:34:38,15.08828907,0.0001129,53.2175,58.4239,92.2855,267.8267,-7.7086e-05,-1.514e-05,0.0,0 STARLINK-5213,1 54093U 22136AU  23263.73238687 -.00001514  00000-0 -77086-4 0  9990,2 54093  53.2175  58.4239 0001129  92.2855 267.8267 15.08828907 50978,6917.914,95.438,540.56,538.998,0.0
54093.0,STARLINK-5213,PAYLOAD,2023-09-21 03:06:56,15.08835196,0.0001206,53.2177,56.6397,97.3058,262.8071,9.4295e-07,-2.73e-06,0.0,0 STARLINK-5213,1 54093U 22136AU  23264.12982553 -.00000273  00000-0  94295-6 0  9995,2 54093  53.2177  56.6397 0001206  97.3058 262.8071 15.08835196 51036,6917.895,95.438,540.594,538.926,0.0
54093.0,STARLINK-5213,PAYLOAD,2023-09-21 15:50:01,15.08843492,0.0001128,53.2173,54.2603,96.6613,263.4507,7.5055e-05,9.07e-06,0.0,0 STARLINK-5213,1 54093U 22136AU  23264.65974293  .00000907  00000-0  75055-4 0  9999,2 54093  53.2173  54.2603 0001128  96.6613 263.4507 15.08843492 51587,6917.87,95.437,540.515,538.954,0.0
54093.0,STARLINK-5213,PAYLOAD,2023-09-21 20:36:11,15.08845193,0.0001118,53.2176,53.3681,93.5886,266.5234,0.0001051,1.385e-05,0.0,0 STARLINK-5213,1 54093U 22136AU  23264.85846159  .00001385  00000-0  10510-3 0  9995,2 54093  53.2176  53.3681 0001118  93.5886 266.5234 15.08845193 51146,6917.865,95.437,540.503,538.956,0.0
54093.0,STARLINK-5213,PAYLOAD,2023-09-22 14:05:26,15.08839012,0.0001198,53.2176,50.0953,95.8733,264.2396,0.00018811,2.707e-05,0.0,0 STARLINK-5213,1 54093U 22136AU  23265.58710662  .00002707  00000-0  18811-3 0  9996,2 54093  53.2176  50.0953 0001198  95.8733 264.2396 15.08839012 51255,6917.883,95.438,540.577,538.92,0.0
54093.0,STARLINK-5213,PAYLOAD,2023-09-22 17:16:12,15.08845429,0.0001001,53.2171,49.5038,83.2689,276.8417,0.00033308,5.018e-05,0.0,0 STARLINK-5213,1 54093U 22136AU  23265.71958511  .00005018  00000-0  33308-3 0  9994,2 54093  53.2171  49.5038 0001001  83.2689 276.8417 15.08845429 51747,6917.864,95.437,540.421,539.036,0.0
54093.0,STARLINK-5213,PAYLOAD,2023-09-23 09:10:03,15.08843799,0.000103,53.2169,46.5308,92.1787,267.9323,0.00010382,1.365e-05,0.0,0 STARLINK-5213,1 54093U 22136AU  23266.38198435  .00001365  00000-0  10382-3 0  9997,2 54093  53.2169  46.5308 0001030  92.1787 267.9323 15.08843799 51847,6917.869,95.437,540.446,539.021,0.0
54093.0,STARLINK-5213,PAYLOAD,2023-09-24 13:46:59,15.08843354,0.0001171,53.2179,41.1783,72.6988,287.4132,0.00013465,1.856e-05,0.0,0 STARLINK-5213,1 54093U 22136AU  23267.57430481  .00001856  00000-0  13465-3 0  9999,2 54093  53.2179  41.1783 0001171  72.6988 287.4132 15.08843354 51558,6917.87,95.437,540.545,538.925,0.0
54093.0,STARLINK-5213,PAYLOAD,2023-09-24 15:22:23,15.08843584,0.0001209,53.2183,40.8817,65.67,294.4418,0.0002141,3.122e-05,0.0,0 STARLINK-5213,1 54093U 22136AU  23267.64054487  .00003122  00000-0  21410-3 0  9992,2 54093  53.2183  40.8817 0001209  65.6700 294.4418 15.08843584 52037,6917.869,95.437,540.571,538.898,0.0
54093.0,STARLINK-5213,PAYLOAD,2023-09-25 13:37:46,15.0884789,0.00014,53.2191,36.7175,80.1836,279.9314,0.00010716,1.418e-05,0.0,0 STARLINK-5213,1 54093U 22136AU  23268.56790174  .00001418  00000-0  10716-3 0  9997,2 54093  53.2191  36.7175 0001400  80.1836 279.9314 15.08847890 51702,6917.856,95.437,540.69,538.753,0.0
54093.0,STARLINK-5213,PAYLOAD,2023-09-25 19:59:18,15.08861836,0.0001285,53.2191,35.5263,76.0421,284.0714,0.00030379,4.553e-05,0.0,0 STARLINK-5213,1 54093U 22136AU  23268.83285284  .00004553  00000-0  30379-3 0  9998,2 54093  53.2191  35.5263 0001285  76.0421 284.0714 15.08861836 51743,6917.814,95.436,540.568,538.79,0.0
54093.0,STARLINK-5213,PAYLOAD,2023-09-26 13:28:34,15.08826825,0.0001395,53.2189,32.2582,79.6534,280.4615,-0.00010848,-2.013e-05,0.0,0 STARLINK-5213,1 54093U 22136AU  23269.56151476 -.00002013  00000-0 -10848-3 0  9994,2 54093  53.2189  32.2582 0001395  79.6534 280.4615 15.08826825 51855,6917.921,95.438,540.751,538.821,0.0
54093.0,STARLINK-5213,PAYLOAD,2023-09-26 23:00:53,15.08841249,0.0001502,53.2193,30.47,103.0429,257.0731,0.00013129,1.802e-05,0.0,0 STARLINK-5213,1 54093U 22136AU  23269.95894776  .00001802  00000-0  13129-3 0  9992,2 54093  53.2193  30.4700 0001502 103.0429 257.0731 15.08841249 52382,6917.877,95.437,540.781,538.703,0.0
54093.0,STARLINK-5213,PAYLOAD,2023-09-27 13:19:21,15.08839037,0.0001381,53.2195,27.7991,79.5737,280.5411,0.00018444,2.649e-05,0.0,0 STARLINK-5213,1 54093U 22136AU  23270.55511231  .00002649  00000-0  18444-3 0  9997,2 54093  53.2195  27.7991 0001381  79.5737 280.5411 15.08839037 52006,6917.883,95.438,540.704,538.793,0.0
